CCSDS_OMM_VERS = 2.0
CREATION_DATE  = 
ORIGINATOR     = 

OBJECT_NAME    = KUIPER-00177
OBJECT_ID      = 2026-030C
CENTER_NAME    = EARTH
REF_FRAME      = TEME
TIME_SYSTEM    = UTC
MEAN_ELEMENT_THEORY = SGP/SGP4

EPOCH          = 2026-02-23T18:17:51.804960
MEAN_MOTION    = 15.35857939
ECCENTRICITY   = .0000587
INCLINATION    = 51.8837
RA_OF_ASC_NODE = 286.2241
ARG_OF_PERICENTER = 90.7010
MEAN_ANOMALY   = 269.4044

EPHEMERIS_TYPE = 0
CLASSIFICATION_TYPE = U
NORAD_CAT_ID   = 67766
ELEMENT_SET_NO = 999
REV_AT_EPOCH   = 295
BSTAR          = .10463E-2
MEAN_MOTION_DOT = .3687E-3
MEAN_MOTION_DDOT = 0

CCSDS_OMM_VERS = 2.0
CREATION_DATE  = 
ORIGINATOR     = 

OBJECT_NAME    = KUIPER-00178
OBJECT_ID      = 2026-030D
CENTER_NAME    = EARTH
REF_FRAME      = TEME
TIME_SYSTEM    = UTC
MEAN_ELEMENT_THEORY = SGP/SGP4

EPOCH          = 2026-02-23T18:28:58.999584
MEAN_MOTION    = 15.34877098
ECCENTRICITY   = .0005333
INCLINATION    = 51.8836
RA_OF_ASC_NODE = 286.2746
ARG_OF_PERICENTER = 10.5404
MEAN_ANOMALY   = 349.5693

EPHEMERIS_TYPE = 0
CLASSIFICATION_TYPE = U
NORAD_CAT_ID   = 67767
ELEMENT_SET_NO = 999
REV_AT_EPOCH   = 295
BSTAR          = .97802E-3
MEAN_MOTION_DOT = .33362E-3
MEAN_MOTION_DDOT = 0

CCSDS_OMM_VERS = 2.0
CREATION_DATE  = 
ORIGINATOR     = 

OBJECT_NAME    = KUIPER-00180
OBJECT_ID      = 2026-030E
CENTER_NAME    = EARTH
REF_FRAME      = TEME
TIME_SYSTEM    = UTC
MEAN_ELEMENT_THEORY = SGP/SGP4

EPOCH          = 2026-02-23T18:48:42.029856
MEAN_MOTION    = 15.32746193
ECCENTRICITY   = .0015473
INCLINATION    = 51.8804
RA_OF_ASC_NODE = 286.3589
ARG_OF_PERICENTER = 25.8480
MEAN_ANOMALY   = 334.3274

EPHEMERIS_TYPE = 0
CLASSIFICATION_TYPE = U
NORAD_CAT_ID   = 67768
ELEMENT_SET_NO = 999
REV_AT_EPOCH   = 295
BSTAR          = -.10359E-2
MEAN_MOTION_DOT = -.33613E-3
MEAN_MOTION_DDOT = 0

CCSDS_OMM_VERS = 2.0
CREATION_DATE  = 
ORIGINATOR     = 

OBJECT_NAME    = KUIPER-00197
OBJECT_ID      = 2026-030F
CENTER_NAME    = EARTH
REF_FRAME      = TEME
TIME_SYSTEM    = UTC
MEAN_ELEMENT_THEORY = SGP/SGP4

EPOCH          = 2026-02-23T18:19:51.494016
MEAN_MOTION    = 15.35736036
ECCENTRICITY   = .0001362
INCLINATION    = 51.8840
RA_OF_ASC_NODE = 286.2332
ARG_OF_PERICENTER = 78.9947
MEAN_ANOMALY   = 281.1193

EPHEMERIS_TYPE = 0
CLASSIFICATION_TYPE = U
NORAD_CAT_ID   = 67769
ELEMENT_SET_NO = 999
REV_AT_EPOCH   = 295
BSTAR          = .88159E-3
MEAN_MOTION_DOT = .30858E-3
MEAN_MOTION_DDOT = 0

CCSDS_OMM_VERS = 2.0
CREATION_DATE  = 
ORIGINATOR     = 

OBJECT_NAME    = KUIPER-00198
OBJECT_ID      = 2026-030G
CENTER_NAME    = EARTH
REF_FRAME      = TEME
TIME_SYSTEM    = UTC
MEAN_ELEMENT_THEORY = SGP/SGP4

EPOCH          = 2026-02-23T18:23:39.304896
MEAN_MOTION    = 15.35388306
ECCENTRICITY   = .0002722
INCLINATION    = 51.8813
RA_OF_ASC_NODE = 286.2487
ARG_OF_PERICENTER = 20.2841
MEAN_ANOMALY   = 339.8253

EPHEMERIS_TYPE = 0
CLASSIFICATION_TYPE = U
NORAD_CAT_ID   = 67770
ELEMENT_SET_NO = 999
REV_AT_EPOCH   = 295
BSTAR          = .98497E-3
MEAN_MOTION_DOT = .34153E-3
MEAN_MOTION_DDOT = 0

CCSDS_OMM_VERS = 2.0
CREATION_DATE  = 
ORIGINATOR     = 

OBJECT_NAME    = KUIPER-00199
OBJECT_ID      = 2026-030H
CENTER_NAME    = EARTH
REF_FRAME      = TEME
TIME_SYSTEM    = UTC
MEAN_ELEMENT_THEORY = SGP/SGP4

EPOCH          = 2026-02-23T18:40:12.004608
MEAN_MOTION    = 15.33781161
ECCENTRICITY   = .0010155
INCLINATION    = 51.8820
RA_OF_ASC_NODE = 286.3215
ARG_OF_PERICENTER = 19.2691
MEAN_ANOMALY   = 340.8677

EPHEMERIS_TYPE = 0
CLASSIFICATION_TYPE = U
NORAD_CAT_ID   = 67771
ELEMENT_SET_NO = 999
REV_AT_EPOCH   = 295
BSTAR          = .10454E-2
MEAN_MOTION_DOT = .34498E-3
MEAN_MOTION_DDOT = 0

CCSDS_OMM_VERS = 2.0
CREATION_DATE  = 
ORIGINATOR     = 

OBJECT_NAME    = KUIPER-00200
OBJECT_ID      = 2026-030J
CENTER_NAME    = EARTH
REF_FRAME      = TEME
TIME_SYSTEM    = UTC
MEAN_ELEMENT_THEORY = SGP/SGP4

EPOCH          = 2026-02-23T19:47:16.379232
MEAN_MOTION    = 15.36349500
ECCENTRICITY   = .0002259
INCLINATION    = 51.8819
RA_OF_ASC_NODE = 285.8900
ARG_OF_PERICENTER = 158.0294
MEAN_ANOMALY   = 202.0789

EPHEMERIS_TYPE = 0
CLASSIFICATION_TYPE = U
NORAD_CAT_ID   = 67772
ELEMENT_SET_NO = 999
REV_AT_EPOCH   = 296
BSTAR          = .63208E-3
MEAN_MOTION_DOT = .22434E-3
MEAN_MOTION_DDOT = 0

CCSDS_OMM_VERS = 2.0
CREATION_DATE  = 
ORIGINATOR     = 

OBJECT_NAME    = KUIPER-00203
OBJECT_ID      = 2026-030K
CENTER_NAME    = EARTH
REF_FRAME      = TEME
TIME_SYSTEM    = UTC
MEAN_ELEMENT_THEORY = SGP/SGP4

EPOCH          = 2026-02-23T18:43:07.008672
MEAN_MOTION    = 15.33490476
ECCENTRICITY   = .0012227
INCLINATION    = 51.8798
RA_OF_ASC_NODE = 286.3324
ARG_OF_PERICENTER = 22.3429
MEAN_ANOMALY   = 337.8086

EPHEMERIS_TYPE = 0
CLASSIFICATION_TYPE = U
NORAD_CAT_ID   = 67773
ELEMENT_SET_NO = 999
REV_AT_EPOCH   = 295
BSTAR          = .95688E-3
MEAN_MOTION_DOT = .31264E-3
MEAN_MOTION_DDOT = 0

CCSDS_OMM_VERS = 2.0
CREATION_DATE  = 
ORIGINATOR     = 

OBJECT_NAME    = KUIPER-00205
OBJECT_ID      = 2026-030L
CENTER_NAME    = EARTH
REF_FRAME      = TEME
TIME_SYSTEM    = UTC
MEAN_ELEMENT_THEORY = SGP/SGP4

EPOCH          = 2026-02-23T18:20:46.220640
MEAN_MOTION    = 15.35722166
ECCENTRICITY   = .0001724
INCLINATION    = 51.8813
RA_OF_ASC_NODE = 286.2350
ARG_OF_PERICENTER = 347.5395
MEAN_ANOMALY   = 12.5548

EPHEMERIS_TYPE = 0
CLASSIFICATION_TYPE = U
NORAD_CAT_ID   = 67774
ELEMENT_SET_NO = 999
REV_AT_EPOCH   = 295
BSTAR          = .11744E-2
MEAN_MOTION_DOT = .41273E-3
MEAN_MOTION_DDOT = 0

CCSDS_OMM_VERS = 2.0
CREATION_DATE  = 
ORIGINATOR     = 

OBJECT_NAME    = KUIPER-00208
OBJECT_ID      = 2026-030M
CENTER_NAME    = EARTH
REF_FRAME      = TEME
TIME_SYSTEM    = UTC
MEAN_ELEMENT_THEORY = SGP/SGP4

EPOCH          = 2026-02-23T18:48:10.040256
MEAN_MOTION    = 15.32839063
ECCENTRICITY   = .0014485
INCLINATION    = 51.8840
RA_OF_ASC_NODE = 286.3621
ARG_OF_PERICENTER = 22.5401
MEAN_ANOMALY   = 337.6218

EPHEMERIS_TYPE = 0
CLASSIFICATION_TYPE = U
NORAD_CAT_ID   = 67775
ELEMENT_SET_NO = 999
REV_AT_EPOCH   = 295
BSTAR          = .42724E-3
MEAN_MOTION_DOT = .13442E-3
MEAN_MOTION_DDOT = 0

CCSDS_OMM_VERS = 2.0
CREATION_DATE  = 
ORIGINATOR     = 

OBJECT_NAME    = KUIPER-00209
OBJECT_ID      = 2026-030N
CENTER_NAME    = EARTH
REF_FRAME      = TEME
TIME_SYSTEM    = UTC
MEAN_ELEMENT_THEORY = SGP/SGP4

EPOCH          = 2026-02-23T18:46:50.363040
MEAN_MOTION    = 15.32715077
ECCENTRICITY   = .0012471
INCLINATION    = 51.8831
RA_OF_ASC_NODE = 286.3539
ARG_OF_PERICENTER = 20.4776
MEAN_ANOMALY   = 339.6707

EPHEMERIS_TYPE = 0
CLASSIFICATION_TYPE = U
NORAD_CAT_ID   = 67776
ELEMENT_SET_NO = 999
REV_AT_EPOCH   = 295
BSTAR          = -.12108E-2
MEAN_MOTION_DOT = -.39102E-3
MEAN_MOTION_DDOT = 0

CCSDS_OMM_VERS = 2.0
CREATION_DATE  = 
ORIGINATOR     = 

OBJECT_NAME    = KUIPER-00213
OBJECT_ID      = 2026-030P
CENTER_NAME    = EARTH
REF_FRAME      = TEME
TIME_SYSTEM    = UTC
MEAN_ELEMENT_THEORY = SGP/SGP4

EPOCH          = 2026-02-23T15:39:06.740640
MEAN_MOTION    = 15.32806464
ECCENTRICITY   = .001422
INCLINATION    = 51.8816
RA_OF_ASC_NODE = 286.9768
ARG_OF_PERICENTER = 17.5498
MEAN_ANOMALY   = 342.5975

EPHEMERIS_TYPE = 0
CLASSIFICATION_TYPE = U
NORAD_CAT_ID   = 67777
ELEMENT_SET_NO = 999
REV_AT_EPOCH   = 293
BSTAR          = .14515E-2
MEAN_MOTION_DOT = .46733E-3
MEAN_MOTION_DDOT = 0

