KUIPER-00177            
1 67766U 26030C   26054.76240515  .00036870  00000+0  10463-2 0  9999
2 67766  51.8837 286.2241 0000587  90.7010 269.4044 15.35857939  2958
KUIPER-00178            
1 67767U 26030D   26054.77012731  .00033362  00000+0  97802-3 0  9994
2 67767  51.8836 286.2746 0005333  10.5404 349.5693 15.34877098  2956
KUIPER-00180            
1 67768U 26030E   26054.78381979 -.00033613  00000+0 -10359-2 0  9991
2 67768  51.8804 286.3589 0015473  25.8480 334.3274 15.32746193  2953
KUIPER-00197            
1 67769U 26030F   26054.76379044  .00030858  00000+0  88159-3 0  9990
2 67769  51.8840 286.2332 0001362  78.9947 281.1193 15.35736036  2955
KUIPER-00198            
1 67770U 26030G   26054.76642714  .00034153  00000+0  98497-3 0  9997
2 67770  51.8813 286.2487 0002722  20.2841 339.8253 15.35388306  2953
KUIPER-00199            
1 67771U 26030H   26054.77791672  .00034498  00000+0  10454-2 0  9995
2 67771  51.8820 286.3215 0010155  19.2691 340.8677 15.33781161  2958
KUIPER-00200            
1 67772U 26030J   26054.82449513  .00022434  00000+0  63208-3 0  9999
2 67772  51.8819 285.8900 0002259 158.0294 202.0789 15.36349500  2963
KUIPER-00203            
1 67773U 26030K   26054.77994223  .00031264  00000+0  95688-3 0  9995
2 67773  51.8798 286.3324 0012227  22.3429 337.8086 15.33490476  2957
KUIPER-00205            
1 67774U 26030L   26054.76442385  .00041273  00000+0  11744-2 0  9993
2 67774  51.8813 286.2350 0001724 347.5395  12.5548 15.35722166  2954
KUIPER-00208            
1 67775U 26030M   26054.78344954  .00013442  00000+0  42724-3 0  9999
2 67775  51.8840 286.3621 0014485  22.5401 337.6218 15.32839063  2950
KUIPER-00209            
1 67776U 26030N   26054.78252735 -.00039102  00000+0 -12108-2 0  9990
2 67776  51.8831 286.3539 0012471  20.4776 339.6707 15.32715077  2957
KUIPER-00213            
1 67777U 26030P   26054.65216135  .00046733  00000+0  14515-2 0  9991
2 67777  51.8816 286.9768 0014220  17.5498 342.5975 15.32806464  2932
